STARLINK-30446          
1 57872U 23144J   26068.56180636 -.00000786  00000+0 -19036-4 0  9995
2 57872  43.0018 271.7939 0001795 273.4287  86.6360 15.27587322137518
FLOCK 4G-26             
1 62633U 25009AA  26068.80489479  .00011283  00000+0  42469-3 0  9999
2 62633  97.4054 151.3913 0001988 299.1273  60.9767 15.27281631 63733
